ONEWEB-0176             
1 48210U 21031A   26191.24268012  .00000210  00000+0  53235-3 0  9999
2 48210  87.8973 285.1052 0002116 104.9908 255.1456 13.14502169251348
ONEWEB-0184             
1 48211U 21031B   26191.21572018 -.00000203  00000+0 -58137-3 0  9991
2 48211  87.8963 285.1129 0002475 118.0132 242.1248 13.14502544251315
ONEWEB-0179             
1 48212U 21031C   26191.18912044  .00001501  00000+0  48503-3 0  9991
2 48212  87.8995 281.4390 0220842 181.7306 178.3150 14.25563332252329
ONEWEB-0180             
1 48213U 21031D   26191.21889672 -.00000216  00000+0 -61770-3 0  9991
2 48213  87.8965 285.1089 0002485 101.4621 258.6788 13.14503276251240
ONEWEB-0218             
1 48214U 21031E   26191.24109655  .00000196  00000+0  49485-3 0  9995
2 48214  87.8976 285.1044 0002751 114.7817 245.3599 13.14503519251405
ONEWEB-0209             
1 48215U 21031F   26191.23000259 -.00000041  00000+0 -14635-3 0  9995
2 48215  87.8973 285.1208 0002188  96.0042 264.1337 13.14503097251401
ONEWEB-0198             
1 48216U 21031G   26191.21427659 -.00000189  00000+0 -54436-3 0  9997
2 48216  87.8960 285.1218 0002456 102.9387 257.2017 13.14502687251510
ONEWEB-0189             
1 48217U 21031H   26191.22682304 -.00000051  00000+0 -17272-3 0  9994
2 48217  87.8970 285.1081 0002366 103.4621 256.6773 13.14502404251257
ONEWEB-0196             
1 48218U 21031J   26191.66132848 -.00000117  00000+0 -35130-3 0  9992
2 48218  87.8969 285.0302 0002194  98.9921 261.1457 13.14502206251318
ONEWEB-0183             
1 48219U 21031K   26190.26583378  .00000103  00000+0  24408-3 0  9995
2 48219  87.8967 285.3061 0001983  92.1445 267.9912 13.14501888251229
ONEWEB-0185             
1 48220U 21031L   26191.20540141 -.00000149  00000+0 -43730-3 0  9994
2 48220  87.8975 285.1138 0002251  90.1848 269.9539 13.14503520251274
ONEWEB-0187             
1 48221U 21031M   26191.56604052  .00000173  00000+0  43250-3 0  9998
2 48221  87.8971 285.0554 0002212  98.5140 261.6240 13.14502773251330
ONEWEB-0192             
1 48222U 21031N   26191.23158299  .00000013  00000+0  92848-6 0  9993
2 48222  87.8969 285.1124 0002110 100.8952 259.2416 13.14503192251207
ONEWEB-0219             
1 48223U 21031P   26191.66765968 -.00000192  00000+0 -55259-3 0  9990
2 48223  87.8983 285.0192 0002221  95.3365 264.8018 13.14503449251460
ONEWEB-0202             
1 48224U 21031Q   26191.26805884  .00000018  00000+0  15221-4 0  9990
2 48224  87.8974 285.1108 0002603 110.8171 249.3238 13.14502513251396
ONEWEB-0204             
1 48225U 21031R   26191.22601449 -.00000085  00000+0 -26281-3 0  9991
2 48225  87.8969 285.1136 0001857  88.6576 271.4767 13.14499581251284
