{"fetched_at":"2026-07-11T06:35:06.838Z","source":"https://celestrak.org/NORAD/elements/gp.php?GROUP=oneweb&FORMAT=JSON","constellation":"oneweb","records":[{"OBJECT_NAME":"ONEWEB-0176","OBJECT_ID":"2021-031A","EPOCH":"2026-07-10T05:49:27.562368","CLASSIFICATION_TYPE":"U","MEAN_MOTION":13.14502169,"ECCENTRICITY":0.00021164,"INCLINATION":87.8973,"RA_OF_ASC_NODE":285.1052,"ARG_OF_PERICENTER":104.9908,"MEAN_ANOMALY":255.1456,"EPHEMERIS_TYPE":0,"NORAD_CAT_ID":48210,"ELEMENT_SET_NO":999,"REV_AT_EPOCH":25134,"BSTAR":0.00053234952,"MEAN_MOTION_DOT":0.0000021,"MEAN_MOTION_DDOT":0},{"OBJECT_NAME":"ONEWEB-0184","OBJECT_ID":"2021-031B","EPOCH":"2026-07-10T05:10:38.223552","CLASSIFICATION_TYPE":"U","MEAN_MOTION":13.14502544,"ECCENTRICITY":0.00024757,"INCLINATION":87.8963,"RA_OF_ASC_NODE":285.1129,"ARG_OF_PERICENTER":118.0132,"MEAN_ANOMALY":242.1248,"EPHEMERIS_TYPE":0,"NORAD_CAT_ID":48211,"ELEMENT_SET_NO":999,"REV_AT_EPOCH":25131,"BSTAR":-0.00058136697,"MEAN_MOTION_DOT":-0.00000203,"MEAN_MOTION_DDOT":0},{"OBJECT_NAME":"ONEWEB-0179","OBJECT_ID":"2021-031C","EPOCH":"2026-07-10T04:32:20.006016","CLASSIFICATION_TYPE":"U","MEAN_MOTION":14.25563332,"ECCENTRICITY":0.02208429,"INCLINATION":87.8995,"RA_OF_ASC_NODE":281.439,"ARG_OF_PERICENTER":181.7306,"MEAN_ANOMALY":178.315,"EPHEMERIS_TYPE":0,"NORAD_CAT_ID":48212,"ELEMENT_SET_NO":999,"REV_AT_EPOCH":25232,"BSTAR":0.00048502786,"MEAN_MOTION_DOT":0.00001501,"MEAN_MOTION_DDOT":0},{"OBJECT_NAME":"ONEWEB-0180","OBJECT_ID":"2021-031D","EPOCH":"2026-07-10T05:15:12.676608","CLASSIFICATION_TYPE":"U","MEAN_MOTION":13.14503276,"ECCENTRICITY":0.00024855,"INCLINATION":87.8965,"RA_OF_ASC_NODE":285.1089,"ARG_OF_PERICENTER":101.4621,"MEAN_ANOMALY":258.6788,"EPHEMERIS_TYPE":0,"NORAD_CAT_ID":48213,"ELEMENT_SET_NO":999,"REV_AT_EPOCH":25124,"BSTAR":-0.00061770222,"MEAN_MOTION_DOT":-0.00000216,"MEAN_MOTION_DDOT":0},{"OBJECT_NAME":"ONEWEB-0218","OBJECT_ID":"2021-031E","EPOCH":"2026-07-10T05:47:10.741920","CLASSIFICATION_TYPE":"U","MEAN_MOTION":13.14503519,"ECCENTRICITY":0.00027516,"INCLINATION":87.8976,"RA_OF_ASC_NODE":285.1044,"ARG_OF_PERICENTER":114.7817,"MEAN_ANOMALY":245.3599,"EPHEMERIS_TYPE":0,"NORAD_CAT_ID":48214,"ELEMENT_SET_NO":999,"REV_AT_EPOCH":25140,"BSTAR":0.00049484714,"MEAN_MOTION_DOT":0.00000196,"MEAN_MOTION_DDOT":0},{"OBJECT_NAME":"ONEWEB-0209","OBJECT_ID":"2021-031F","EPOCH":"2026-07-10T05:31:12.223776","CLASSIFICATION_TYPE":"U","MEAN_MOTION":13.14503097,"ECCENTRICITY":0.00021889,"INCLINATION":87.8973,"RA_OF_ASC_NODE":285.1208,"ARG_OF_PERICENTER":96.0042,"MEAN_ANOMALY":264.1337,"EPHEMERIS_TYPE":0,"NORAD_CAT_ID":48215,"ELEMENT_SET_NO":999,"REV_AT_EPOCH":25140,"BSTAR":-0.00014634991,"MEAN_MOTION_DOT":-4.1e-7,"MEAN_MOTION_DDOT":0},{"OBJECT_NAME":"ONEWEB-0198","OBJECT_ID":"2021-031G","EPOCH":"2026-07-10T05:08:33.497376","CLASSIFICATION_TYPE":"U","MEAN_MOTION":13.14502687,"ECCENTRICITY":0.0002456,"INCLINATION":87.896,"RA_OF_ASC_NODE":285.1218,"ARG_OF_PERICENTER":102.9387,"MEAN_ANOMALY":257.2017,"EPHEMERIS_TYPE":0,"NORAD_CAT_ID":48216,"ELEMENT_SET_NO":999,"REV_AT_EPOCH":25151,"BSTAR":-0.00054436403,"MEAN_MOTION_DOT":-0.00000189,"MEAN_MOTION_DDOT":0},{"OBJECT_NAME":"ONEWEB-0189","OBJECT_ID":"2021-031H","EPOCH":"2026-07-10T05:26:37.510656","CLASSIFICATION_TYPE":"U","MEAN_MOTION":13.14502404,"ECCENTRICITY":0.00023661,"INCLINATION":87.897,"RA_OF_ASC_NODE":285.1081,"ARG_OF_PERICENTER":103.4621,"MEAN_ANOMALY":256.6773,"EPHEMERIS_TYPE":0,"NORAD_CAT_ID":48217,"ELEMENT_SET_NO":999,"REV_AT_EPOCH":25125,"BSTAR":-0.00017271644,"MEAN_MOTION_DOT":-5.1e-7,"MEAN_MOTION_DDOT":0},{"OBJECT_NAME":"ONEWEB-0196","OBJECT_ID":"2021-031J","EPOCH":"2026-07-10T15:52:18.780672","CLASSIFICATION_TYPE":"U","MEAN_MOTION":13.14502206,"ECCENTRICITY":0.0002194,"INCLINATION":87.8969,"RA_OF_ASC_NODE":285.0302,"ARG_OF_PERICENTER":98.9921,"MEAN_ANOMALY":261.1457,"EPHEMERIS_TYPE":0,"NORAD_CAT_ID":48218,"ELEMENT_SET_NO":999,"REV_AT_EPOCH":25131,"BSTAR":-0.0003513,"MEAN_MOTION_DOT":-0.00000117,"MEAN_MOTION_DDOT":0},{"OBJECT_NAME":"ONEWEB-0183","OBJECT_ID":"2021-031K","EPOCH":"2026-07-09T06:22:48.038592","CLASSIFICATION_TYPE":"U","MEAN_MOTION":13.14501888,"ECCENTRICITY":0.00019832,"INCLINATION":87.8967,"RA_OF_ASC_NODE":285.3061,"ARG_OF_PERICENTER":92.1445,"MEAN_ANOMALY":267.9912,"EPHEMERIS_TYPE":0,"NORAD_CAT_ID":48219,"ELEMENT_SET_NO":999,"REV_AT_EPOCH":25122,"BSTAR":0.00024407982,"MEAN_MOTION_DOT":0.00000103,"MEAN_MOTION_DDOT":0},{"OBJECT_NAME":"ONEWEB-0185","OBJECT_ID":"2021-031L","EPOCH":"2026-07-10T04:55:46.681824","CLASSIFICATION_TYPE":"U","MEAN_MOTION":13.1450352,"ECCENTRICITY":0.00022515,"INCLINATION":87.8975,"RA_OF_ASC_NODE":285.1138,"ARG_OF_PERICENTER":90.1848,"MEAN_ANOMALY":269.9539,"EPHEMERIS_TYPE":0,"NORAD_CAT_ID":48220,"ELEMENT_SET_NO":999,"REV_AT_EPOCH":25127,"BSTAR":-0.00043730262,"MEAN_MOTION_DOT":-0.00000149,"MEAN_MOTION_DDOT":0},{"OBJECT_NAME":"ONEWEB-0187","OBJECT_ID":"2021-031M","EPOCH":"2026-07-10T13:35:05.900928","CLASSIFICATION_TYPE":"U","MEAN_MOTION":13.14502773,"ECCENTRICITY":0.0002212,"INCLINATION":87.8971,"RA_OF_ASC_NODE":285.0554,"ARG_OF_PERICENTER":98.514,"MEAN_ANOMALY":261.624,"EPHEMERIS_TYPE":0,"NORAD_CAT_ID":48221,"ELEMENT_SET_NO":999,"REV_AT_EPOCH":25133,"BSTAR":0.0004325,"MEAN_MOTION_DOT":0.00000173,"MEAN_MOTION_DDOT":0},{"OBJECT_NAME":"ONEWEB-0192","OBJECT_ID":"2021-031N","EPOCH":"2026-07-10T05:33:28.770336","CLASSIFICATION_TYPE":"U","MEAN_MOTION":13.14503192,"ECCENTRICITY":0.000211,"INCLINATION":87.8969,"RA_OF_ASC_NODE":285.1124,"ARG_OF_PERICENTER":100.8952,"MEAN_ANOMALY":259.2416,"EPHEMERIS_TYPE":0,"NORAD_CAT_ID":48222,"ELEMENT_SET_NO":999,"REV_AT_EPOCH":25120,"BSTAR":9.28481e-7,"MEAN_MOTION_DOT":1.3e-7,"MEAN_MOTION_DDOT":0},{"OBJECT_NAME":"ONEWEB-0219","OBJECT_ID":"2021-031P","EPOCH":"2026-07-10T16:01:25.796352","CLASSIFICATION_TYPE":"U","MEAN_MOTION":13.14503449,"ECCENTRICITY":0.0002221,"INCLINATION":87.8983,"RA_OF_ASC_NODE":285.0192,"ARG_OF_PERICENTER":95.3365,"MEAN_ANOMALY":264.8018,"EPHEMERIS_TYPE":0,"NORAD_CAT_ID":48223,"ELEMENT_SET_NO":999,"REV_AT_EPOCH":25146,"BSTAR":-0.00055259,"MEAN_MOTION_DOT":-0.00000192,"MEAN_MOTION_DDOT":0},{"OBJECT_NAME":"ONEWEB-0202","OBJECT_ID":"2021-031Q","EPOCH":"2026-07-10T06:26:00.283776","CLASSIFICATION_TYPE":"U","MEAN_MOTION":13.14502513,"ECCENTRICITY":0.00026039,"INCLINATION":87.8974,"RA_OF_ASC_NODE":285.1108,"ARG_OF_PERICENTER":110.8171,"MEAN_ANOMALY":249.3238,"EPHEMERIS_TYPE":0,"NORAD_CAT_ID":48224,"ELEMENT_SET_NO":999,"REV_AT_EPOCH":25139,"BSTAR":0.000015220832,"MEAN_MOTION_DOT":1.8e-7,"MEAN_MOTION_DDOT":0},{"OBJECT_NAME":"ONEWEB-0204","OBJECT_ID":"2021-031R","EPOCH":"2026-07-10T05:25:27.651936","CLASSIFICATION_TYPE":"U","MEAN_MOTION":13.14499581,"ECCENTRICITY":0.00018576,"INCLINATION":87.8969,"RA_OF_ASC_NODE":285.1136,"ARG_OF_PERICENTER":88.6576,"MEAN_ANOMALY":271.4767,"EPHEMERIS_TYPE":0,"NORAD_CAT_ID":48225,"ELEMENT_SET_NO":999,"REV_AT_EPOCH":25128,"BSTAR":-0.00026280913,"MEAN_MOTION_DOT":-8.5e-7,"MEAN_MOTION_DDOT":0}]}
